{
    "links": {
        "self": "http://www.neowsapp.com/rest/v1/neo/3555014?api_key=iIulBulltgU6a56xZRHN4H3l9WmuAYTsLGpBGhQ2"
    },
    "id": "3555014",
    "neo_reference_id": "3555014",
    "name": "(2011 AN1)",
    "designation": "2011 AN1",
    "nasa_jpl_url": "http://ssd.jpl.nasa.gov/sbdb.cgi?sstr=3555014",
    "absolute_magnitude_h": 27.7,
    "estimated_diameter": {
        "kilometers": {
            "estimated_diameter_min": 0.0076657557,
            "estimated_diameter_max": 0.0171411509
        },
        "meters": {
            "estimated_diameter_min": 7.6657557353,
            "estimated_diameter_max": 17.1411509231
        },
        "miles": {
            "estimated_diameter_min": 0.0047632783,
            "estimated_diameter_max": 0.0106510141
        },
        "feet": {
            "estimated_diameter_min": 25.1501180466,
            "estimated_diameter_max": 56.2373735944
        }
    },
    "is_potentially_hazardous_asteroid": false,
    "close_approach_data": [
        {
            "close_approach_date": "2011-01-10",
            "close_approach_date_full": "2011-Jan-10 23:53",
            "epoch_date_close_approach": 1294703580000,
            "relative_velocity": {
                "kilometers_per_second": "7.1391174347",
                "kilometers_per_hour": "25700.8227650488",
                "miles_per_hour": "15969.4917897605"
            },
            "miss_distance": {
                "astronomical": "0.0141730907",
                "lunar": "5.5133322823",
                "kilometers": "2120264.180036809",
                "miles": "1317471.0695296042"
            },
            "orbiting_body": "Earth"
        },
        {
            "close_approach_date": "2011-06-24",
            "close_approach_date_full": "2011-Jun-24 01:02",
            "epoch_date_close_approach": 1308877320000,
            "relative_velocity": {
                "kilometers_per_second": "5.442008709",
                "kilometers_per_hour": "19591.2313522934",
                "miles_per_hour": "12173.2292810959"
            },
            "miss_distance": {
                "astronomical": "0.3431675539",
                "lunar": "133.4921784671",
                "kilometers": "51337135.116550193",
                "miles": "31899416.5658229434"
            },
            "orbiting_body": "Earth"
        },
        {
            "close_approach_date": "2017-12-23",
            "close_approach_date_full": "2017-Dec-23 22:26",
            "epoch_date_close_approach": 1514067960000,
            "relative_velocity": {
                "kilometers_per_second": "15.0470934139",
                "kilometers_per_hour": "54169.5362901592",
                "miles_per_hour": "33658.843257627"
            },
            "miss_distance": {
                "astronomical": "0.2719968339",
                "lunar": "105.8067683871",
                "kilometers": "40690146.998183793",
                "miles": "25283684.9246226234"
            },
            "orbiting_body": "Earth"
        },
        {
            "close_approach_date": "2022-06-05",
            "close_approach_date_full": "2022-Jun-05 13:32",
            "epoch_date_close_approach": 1654435920000,
            "relative_velocity": {
                "kilometers_per_second": "20.2161360027",
                "kilometers_per_hour": "72778.0896097484",
                "miles_per_hour": "45221.4746244573"
            },
            "miss_distance": {
                "astronomical": "0.4598603694",
                "lunar": "178.8856836966",
                "kilometers": "68794131.759653178",
                "miles": "42746691.2850347364"
            },
            "orbiting_body": "Earth"
        }
    ],
    "orbital_data": {
        "orbit_id": "7",
        "orbit_determination_date": "2017-04-06 08:55:05",
        "first_observation_date": "2011-01-03",
        "last_observation_date": "2011-01-09",
        "data_arc_in_days": 6,
        "observations_used": 18,
        "orbit_uncertainty": "7",
        "minimum_orbit_intersection": ".0134993",
        "jupiter_tisserand_invariant": "5.113",
        "epoch_osculation": "2459000.5",
        "eccentricity": ".2789702765999868",
        "semi_major_axis": "1.246121575634584",
        "inclination": "3.915403368531913",
        "ascending_node_longitude": "99.83462302576395",
        "orbital_period": "508.0881314102043",
        "perihelion_distance": ".8984906950025928",
        "perihelion_argument": "65.039252814414",
        "aphelion_distance": "1.593752456266576",
        "perihelion_time": "2459174.573700493747",
        "mean_anomaly": "236.6620822182615",
        "mean_motion": ".7085384950851262",
        "equinox": "J2000",
        "orbit_class": {
            "orbit_class_type": "APO",
            "orbit_class_description": "Near-Earth asteroid orbits which cross the Earth’s orbit similar to that of 1862 Apollo",
            "orbit_class_range": "a (semi-major axis) > 1.0 AU; q (perihelion) < 1.017 AU"
        }
    },
    "is_sentry_object": false
}